SAT
1 42790U 17036AB  20090.65507742 +.00001525 +00000-0 +65295-4 0  9990
2 42790 097.3136 147.9154 0009305 306.6162 053.4219 15.24259196153844
